CAS-2T & KS-1Q          
1 41847U 16066G   23041.87050144  .00003574  00000+0  54259-3 0  9998
2 41847  98.5202 110.9832 0361264 216.0986 141.5319 14.39141429328634
NAYIF-1 (EO-88)         
1 42017U 17008BX  23041.65736851  .00085509  00000+0  16275-2 0  9990
2 42017  97.2353 110.5527 0003652 107.8335 252.3315 15.47908048333724
ZHUHAI-1 02 (CAS-4B)    
1 42759U 17034B   23041.65852520  .00011503  00000+0  62435-3 0  9997
2 42759  43.0174  97.6709 0010800 354.8286 148.2943 15.14493175312435
ZHUHAI-1 01 (CAS-4A)    
1 42761U 17034D   23041.61134051  .00010537  00000+0  57083-3 0  9997
2 42761  43.0163  96.5258 0012222 358.9306 132.1056 15.14617968312436
MAX VALIER SAT          
1 42778U 17036P   23041.83265623  .00026589  00000+0  84252-3 0  9993
2 42778  97.1763  80.0656 0009297 185.9766 174.1367 15.32656070313334
RADFXSAT (FOX-1B)       
1 43017U 17073E   23041.65093622  .00010492  00000+0  75364-3 0  9999
2 43017  97.6486 291.0387 0242061 126.1501 236.2377 14.83790154282406
FOX-1D (AO-92)          
1 43137U 18004AC  23041.67914307  .00040911  00000+0  11453-2 0  9998
2 43137  97.3429 120.3026 0006172 230.9141 129.1555 15.36506553282823
DIWATA-2B               
1 43678U 18084H   23041.80141994  .00002124  00000+0  21113-3 0  9994
2 43678  97.9984 183.4358 0008968 214.4731 145.6163 14.92773571233405
ES'HAIL 2               
1 43700U 18090A   23041.89216235  .00000156  00000+0  00000+0 0  9998
2 43700   0.0130 129.8441 0002294 230.4662 127.3565  1.00269058 15421
FOX-1CLIFF (AO-95)      
1 43770U 18099N   23041.86878155  .00010481  00000+0  88802-3 0  9998
2 43770  97.5921 106.8416 0013162 187.7734 172.3286 14.98095435228685
ITASAT 1                
1 43786U 18099AE  23041.65230390  .00008794  00000+0  74751-3 0  9997
2 43786  97.5925 107.6553 0014602 182.9299 177.1841 14.98002048228699
JY1SAT (JO-97)          
1 43803U 18099AX  23041.63454115  .00010742  00000+0  89135-3 0  9996
2 43803  97.5883 107.5111 0014227 186.1762 173.9288 14.98882278228729
UWE-4                   
1 43880U 18111E   23041.72041922  .00011152  00000+0  89595-3 0  9990
2 43880  97.6528 308.9256 0012748 239.1378 120.8593 15.00135962225391
NEXUS (FO-99)           
1 43937U 19003F   23041.64281056  .00051871  00000+0  13086-2 0  9992
2 43937  97.1056  71.5060 0017235  25.0195 335.1883 15.39530903226497
PSAT2 (NO-104)          
1 44354U 19036R   23040.94100291  .01723094 -73894-5  10141-2 0  9996
2 44354  28.5109 281.6083 0041725 218.6097 141.1534 16.15203211201786
JAISAT-1                
1 44419U 19038F   23041.48908356  .00037017  00000+0  15604-2 0  9991
2 44419  97.6650  19.7252 0018283  35.7656 324.4800 15.23072825199204
DUCHIFAT-3              
1 44854U 19089C   23041.57780602  .00009912  00000+0  71671-3 0  9992
2 44854  36.9624 126.5562 0007821 358.7479 100.1190 15.03537484173750
CAS-6 (TIANQIN 1)       
1 44881U 19093C   23041.93440128  .00001539  00000+0  19967-3 0  9990
2 44881  97.8728 122.5169 0015878 126.6009 233.6780 14.82122825170098
RS-44 & BREEZE-KM R/B   
1 44909U 19096E   23041.80314288  .00000011  00000+0 -64685-5 0  9991
2 44909  82.5177  71.9247 0218462 122.3213 239.9249 12.79718266145990
ORBITAL FACTORY 2 (OF-2)
1 45113U 19071C   23041.11017957  .00269447  00000+0  17983-2 0  9994
2 45113  51.6297 313.9389 0000343 244.1190 115.9773 15.73987234170340
HUSKYSAT-1 (HO-107)     
1 45119U 19071J   23041.35513687  .00188587  00000+0  17024-2 0  9998
2 45119  51.6320 317.0554 0001661 323.2166  36.8716 15.67002107170313
BY70-2                  
1 45857U 20042B   23041.56464018  .00027486  00000+0  32571-2 0  9997
2 45857  97.9349 121.5279 0009347  66.0559 294.1759 14.84463481140716
SALSAT                  
1 46495U 20068K   23041.43330120  .00008442  00000+0  58058-3 0  9996
2 46495  97.7576 348.3540 0015785 182.5991 177.5156 15.06074049129986
BY70-3                  
1 46839U 20079N   23041.84371469  .00168661  00000+0  17655-2 0  9993
2 46839  97.1666 117.9570 0004531 198.2766 298.6341 15.63873131127156
RADFXSAT-2 (AO-109)     
1 47311U 21002C   23041.65199792  .00039397  00000+0  12678-2 0  9995
2 47311  60.6830 182.3564 0035589 110.4501 250.0417 15.31372688114854
UVSQ-SAT                
1 47438U 21006AB  23041.88730854  .00023959  00000+0  11196-2 0  9995
2 47438  97.4045 101.0860 0011351 159.4297 200.7398 15.19732738113438
DIY-1 (ARDUIQUBE)       
1 47963U 21022AH  23041.66451209  .00092625  00000+0  34406-2 0  9991
2 47963  97.5129 306.6666 0015292  41.1813 319.0576 15.27068196103093
XW-3 (CAS-9)            
1 50466U 21131B   23040.56036002  .00001029  00000+0  35012-3 0  9995
2 50466  98.5610 122.4907 0005256 153.3121 206.8338 14.38666929 59009
TEVEL-3                 
1 50988U 22002E   23041.80120394  .00020967  00000+0  99685-3 0  9996
2 50988  97.4522 110.0386 0007206 321.5647 133.1465 15.19198588 59533
TEVEL-8                 
1 50989U 22002F   23041.81477959  .00021248  00000+0  10117-2 0  9995
2 50989  97.4544 110.0975 0007293 317.3769 136.9263 15.19143196 59538
TEVEL-5                 
1 50998U 22002Q   23041.80562723  .00021458  00000+0  10020-2 0  9994
2 50998  97.4519 110.2994 0008596 312.4025 142.7822 15.19808343 59551
TEVEL-6                 
1 50999U 22002R   23041.80430444  .00021540  00000+0  10055-2 0  9999
2 50999  97.4530 110.2950 0008984 315.1110 139.4352 15.19814601 59558
TEVEL-1                 
1 51013U 22002AF  23041.80769017  .00020835  00000+0  99160-3 0  9999
2 51013  97.4528 110.0034 0006701 317.9447 136.2950 15.19166741 59534
TEVEL-7                 
1 51062U 22002CG  23041.81661049  .00021040  00000+0  10018-2 0  9993
2 51062  97.4543 110.0776 0006945 318.5695 134.9684 15.19145980 59531
TEVEL-4                 
1 51063U 22002CH  23041.81927773  .00021191  00000+0  10096-2 0  9996
2 51063  97.4545 110.0714 0007398 318.5415 134.7684 15.19121334 59534
TEVEL-2                 
1 51069U 22002CP  23041.86240994  .00021278  00000+0  10113-2 0  9996
2 51069  97.4520 110.0762 0007798 322.6651  96.3158 15.19202860 59542
GREENCUBE               
1 53106U 22080B   23034.19933790 -.00000003  00000+0  00000+0 0  9992
2 53106  70.1777   6.2677 0008922 216.5435 143.4616  6.42557193 13147
RS29S (SXC3-2110 CYCLO*)
1 53373U 22096D   23041.67166671  .00033301  00000+0  11370-2 0  9993
2 53373  97.4259 307.2306 0001600  85.3442   0.9287 15.30242187 28282
RS32S (SXC3-212 MONITO*)
1 53374U 22096E   23041.72659481  .00036010  00000+0  12345-2 0  9999
2 53374  97.4251 307.2866 0001866 112.1232 305.7363 15.30092916 28291
RS34S (SXC3-218 KUZBAS*)
1 53375U 22096F   23041.70338492  .00030554  00000+0  10732-2 0  9999
2 53375  97.4243 307.1865 0001691  92.9663 354.3460 15.29337164 28282
RS23S (SXC3-21 UTMN)    
1 53376U 22096G   23041.69402122  .00033422  00000+0  11663-2 0  9991
2 53376  97.4256 307.1967 0001766 100.1687 344.9300 15.29530655 28289
RS28S (SXC3-214 MIET-A*)
1 53377U 22096H   23041.69951435  .00031657  00000+0  11118-2 0  9991
2 53377  97.4256 307.1952 0001623 108.9417 338.3800 15.29332729 28287
RS26S (KAI-1)           
1 53378U 22096J   23041.84628703  .00021169  00000+0  75772-3 0  9992
2 53378  97.4271 307.2943 0001495 118.4177 307.3468 15.28796295 28302
RS19S (SXC3-219 ISOI)   
1 53381U 22096M   23041.70586122  .00029375  00000+0  10150-2 0  9994
2 53381  97.4255 307.3366 0005413 128.3821 321.1162 15.29870825 28294
RS21S (CUBESX-HSE-2)    
1 53383U 22096P   23041.69340704  .00030278  00000+0  10423-2 0  9995
2 53383  97.4258 307.3423 0005729 130.6115 287.6893 15.29983730 28292
RS30S (SXC3-217 SIREN)  
1 53384U 22096Q   23041.64951331  .00025848  00000+0  90306-3 0  9991
2 53384  97.4262 307.2604 0005498 128.3077 322.3061 15.29534703 28287
RS20S (GEOSCAN-EDELVEIS)
1 53385U 22096R   23041.68113708  .00040815  00000+0  13431-2 0  9998
2 53385  97.4254 307.5006 0005798 123.5717 291.2313 15.31377865 28336
RS33S (SXC3-215 VIZARD) 
1 53386U 22096S   23041.67212538  .00043525  00000+0  13764-2 0  9999
2 53386  97.4254 307.6781 0006542 127.8191 321.4906 15.32638143 28333
CAS-5A (FO-118)         
1 54684U 22167C   23041.65284419  .00018727  00000+0  11475-2 0  9998
2 54684  97.5415 180.5903 0015040  52.1230  68.8654 15.10122268  9553
XW-4 (CAS-10)           
1 54816U 21035C   23041.91407054  .00265036  00000+0  15423-2 0  9993
2 54816  41.4780 202.3640 0015456 312.7116  47.2432 15.76724508  8486
